*******************************************************************************
JPL/HORIZONS                     (2002 XV93)               2013-Dec-01 19:35:31
Rec #:517830 (+COV)   Soln.date: 2011-Sep-14_19:48:49     # obs: 41 (1990-2008)
 
FK5/J2000.0 helio. ecliptic osc. elements (au, days, deg., period=Julian yrs): 
 
  EPOCH=  2453113.5 ! 2004-Apr-18.00 (CT)          Residual RMS= .35519        
   EC= .1265939594999127   QR= 34.43010585663776   TP= 2476886.519827276       
   OM= 19.15406265700095   W=  163.1754112140718   IN= 13.28735607157635       
   A= 39.42050347731058    MA= 265.3315696596865   ADIST= 44.41090109798341    
   PER= 247.50927          N= .003982179           ANGMOM= .107135729          
   DAN= 44.13706           DDN= 34.59651           L= 182.7553735              
   B= 3.8143623            MOID= 33.43529892       TP= 2069-May-20.0198272760  
 
Asteroid physical parameters (km, seconds, rotational period in hours):        
   GM= n.a.                RAD= n.a.               ROTPER= n.a.                
   H= 5.                   G= .150                 B-V= n.a.                   
                           ALBEDO= n.a.            STYP= n.a.                  
 
ASTEROID comments: 
1: soln ref.= JPL#7, OCC=3
2: source=ORB
*******************************************************************************
 

 

*******************************************************************************
Ephemeris / WWW_USER Sun Dec  1 19:35:31 2013 Pasadena, USA      / Horizons    
*******************************************************************************
Target body name: (2002 XV93)                     {source: JPL#7}
Center body name: Earth (399)                     {source: DE-0406LE-0406}
Center-site name: San Pedro Martir
*******************************************************************************
Start time      : A.D. 2013-Jan-01 00:00:00.0000 UT      
Stop  time      : A.D. 2014-Dec-31 00:00:00.0000 UT      
Step-size       : 1440 minutes
*******************************************************************************
Target pole/equ : No model available
Target radii    : (unavailable)                                                
Center geodetic : 244.536700,31.0434585,2.8281109 {E-lon(deg),Lat(deg),Alt(km)}
Center cylindric: 244.536700,5471.93108,3271.4810 {E-lon(deg),Dxy(km),Dz(km)}
Center pole/equ : High-precision EOP model        {East-longitude +}
Center radii    : 6378.1 x 6378.1 x 6356.8 km     {Equator, meridian, pole}    
Target primary  : Sun
Vis. interferer : MOON (R_eq= 1737.400) km        {source: DE-0406LE-0406}
Rel. light bend : Sun, EARTH                      {source: DE-0406LE-0406}
Rel. lght bnd GM: 1.3271E+11, 3.9860E+05 km^3/s^2                              
Small-body perts: Yes                             {source: SB406-CPV-2}
Atmos refraction: NO (AIRLESS)
RA format       : DEG
Time format     : BOTH
EOP file        : eop.131128.p140219                                           
EOP coverage    : DATA-BASED 1962-JAN-20 TO 2013-NOV-28. PREDICTS-> 2014-FEB-18
Units conversion: 1 au= 149597870.700 km, c= 299792.458 km/s, 1 day= 86400.0 s 
Table cut-offs 1: Elevation (-90.0deg=NO ),Airmass (>38.000=NO), Daylight (NO )
Table cut-offs 2: Solar Elongation (  0.0,180.0=NO ),Local Hour Angle( 0.0=NO )
*******************************************************************************
Initial FK5/J2000.0 heliocentric ecliptic osculating elements (au, days, deg.):
  EPOCH=  2453113.5 ! 2004-Apr-18.00 (CT)          Residual RMS= .35519        
   EC= .1265939594999127   QR= 34.43010585663776   TP= 2476886.519827276       
   OM= 19.15406265700095   W=  163.1754112140718   IN= 13.28735607157635       
Asteroid physical parameters (km, seconds, rotational period in hours):        
   GM= n.a.                RAD= n.a.               ROTPER= n.a.                
   H= 5.                   G= .150                 B-V= n.a.                   
                           ALBEDO= n.a.            STYP= n.a.                  
************************************************************************************************************
 Date__(UT)__HR:MN Date_________JDUT     R.A._(J2000.0)_DEC. dRA*cosD d(DEC)/dt            delta      deldot
************************************************************************************************************
$$SOE
 2013-Sep-13 00:00 2456548.500000000 *m   87.26255  35.64563 1.053797  0.837304 39.4068641542692 -29.0439847
 2013-Sep-14 00:00 2456549.500000000 *m   87.27057  35.65133 0.991882  0.838802 39.3899774384792 -29.1053358
 2013-Sep-15 00:00 2456550.500000000 *m   87.27809  35.65703 0.929813  0.840095 39.3730603737268 -29.1587027
 2013-Sep-16 00:00 2456551.500000000 *m   87.28509  35.66274 0.867602  0.841186 39.3561175547765 -29.2042373
 2013-Sep-17 00:00 2456552.500000000 *m   87.29158  35.66845 0.805252  0.842080 39.3391534921026 -29.2420737
 2013-Sep-18 00:00 2456553.500000000 *    87.29755  35.67416 0.742759  0.842781 39.3221726278053 -29.2723086
 2013-Sep-19 00:00 2456554.500000000 *    87.30300  35.67987 0.680117  0.843290 39.3051793620104 -29.2949859
 2013-Sep-20 00:00 2456555.500000000 *    87.30794  35.68559 0.617318  0.843608 39.2881780857777 -29.3100903
 2013-Sep-21 00:00 2456556.500000000 *    87.31236  35.69129 0.554356  0.843732 39.2711732144622 -29.3175517
 2013-Sep-22 00:00 2456557.500000000 *    87.31626  35.69700 0.491231  0.843657 39.2541692155431 -29.3172595
 2013-Sep-23 00:00 2456558.500000000 *    87.31964  35.70270 0.427944  0.843378 39.2371706271528 -29.3090799
 2013-Sep-24 00:00 2456559.500000000 *    87.32249  35.70839 0.364506  0.842890 39.2201820666634 -29.2928717
 2013-Sep-25 00:00 2456560.500000000 *    87.32482  35.71408 0.300928  0.842186 39.2032082312226 -29.2684983
 2013-Sep-26 00:00 2456561.500000000 *    87.32663  35.71976 0.237229  0.841262 39.1862538932626 -29.2358333
 2013-Sep-27 00:00 2456562.500000000 *    87.32791  35.72542 0.173425  0.840111 39.1693238940122 -29.1947617
 2013-Sep-28 00:00 2456563.500000000 *    87.32866  35.73108 0.109537  0.838729 39.1524231373031 -29.1451782
 2013-Sep-29 00:00 2456564.500000000 *    87.32889  35.73672 0.045587  0.837110 39.1355565848016 -29.0869842
 2013-Sep-30 00:00 2456565.500000000 *    87.32858  35.74234 -0.01840  0.835249 39.1187292531236 -29.0200846
 2013-Oct-01 00:00 2456566.500000000 *    87.32776  35.74795 -0.08241  0.833142 39.1019462124481 -28.9443858
 2013-Oct-02 00:00 2456567.500000000 *    87.32640  35.75354 -0.14640  0.830783 39.0852125855835 -28.8597962
 2013-Oct-03 00:00 2456568.500000000 *    87.32452  35.75911 -0.21035  0.828168 39.0685335458489 -28.7662304
 2013-Oct-04 00:00 2456569.500000000 *m   87.32210  35.76465 -0.27423  0.825291 39.0519143117111 -28.6636158
 2013-Oct-05 00:00 2456570.500000000 *m   87.31917  35.77017 -0.33799  0.822148 39.0353601360937 -28.5519044
 2013-Oct-06 00:00 2456571.500000000 *m   87.31571  35.77567 -0.40160  0.818738 39.0188762889343 -28.4310841
 2013-Oct-07 00:00 2456572.500000000 *m   87.31172  35.78113 -0.46501  0.815058 39.0024680330157 -28.3011899
 2013-Oct-08 00:00 2456573.500000000 *m   87.30722  35.78657 -0.52819  0.811110 38.9861405950535 -28.1623088
 2013-Oct-09 00:00 2456574.500000000 *m   87.30219  35.79198 -0.59109  0.806896 38.9698991357459 -28.0145781
 2013-Oct-10 00:00 2456575.500000000 *m   87.29665  35.79735 -0.65368  0.802422 38.9537487231683 -27.8581759
 2013-Oct-11 00:00 2456576.500000000 *m   87.29059  35.80269 -0.71593  0.797693 38.9376943131942 -27.6933067
 2013-Oct-12 00:00 2456577.500000000 *m   87.28402  35.80799 -0.77782  0.792715 38.9217407389779 -27.5201849
 2013-Oct-13 00:00 2456578.500000000 *m   87.27695  35.81326 -0.83934  0.787496 38.9058927098146 -27.3390191
 2013-Oct-14 00:00 2456579.500000000 *m   87.26936  35.81848 -0.90048  0.782042 38.8901548185669 -27.1499985
 2013-Oct-15 00:00 2456580.500000000 *m   87.26128  35.82367 -0.96123  0.776358 38.8745315563804 -26.9532812
 2013-Oct-16 00:00 2456581.500000000 *m   87.25270  35.82881 -1.02159  0.770448 38.8590273332266 -26.7489855
 2013-Oct-17 00:00 2456582.500000000 *m   87.24362  35.83390 -1.08158  0.764315 38.8436465024597 -26.5371852
 2013-Oct-18 00:00 2456583.500000000 *    87.23406  35.83895 -1.14118  0.757959 38.8283933869577 -26.3179092
 2013-Oct-19 00:00 2456584.500000000 *    87.22400  35.84396 -1.20039  0.751381 38.8132723038598 -26.0911463
 2013-Oct-20 00:00 2456585.500000000 *    87.21346  35.84891 -1.25922  0.744577 38.7982875849115 -25.8568556
 2013-Oct-21 00:00 2456586.500000000 *    87.20243  35.85382 -1.31765  0.737545 38.7834435902542 -25.6149784
 2013-Oct-22 00:00 2456587.500000000 *    87.19093  35.85867 -1.37568  0.730282 38.7687447149590 -25.3654509
 2013-Oct-23 00:00 2456588.500000000 *    87.17895  35.86347 -1.43327  0.722784 38.7541953891326 -25.1082136
 2013-Oct-24 00:00 2456589.500000000 *    87.16649  35.86821 -1.49042  0.715048 38.7398000734827 -24.8432171
 2013-Oct-25 00:00 2456590.500000000 *    87.15358  35.87290 -1.54710  0.707071 38.7255632525845 -24.5704249
 2013-Oct-26 00:00 2456591.500000000 *    87.14019  35.87753 -1.60329  0.698851 38.7114894278308 -24.2898115
 2013-Oct-27 00:00 2456592.500000000 *    87.12635  35.88210 -1.65896  0.690386 38.6975831114474 -24.0013609
 2013-Oct-28 00:00 2456593.500000000 *    87.11205  35.88661 -1.71408  0.681673 38.6838488221685 -23.7050628
 2013-Oct-29 00:00 2456594.500000000 *    87.09731  35.89105 -1.76864  0.672712 38.6702910826147 -23.4009103
 2013-Oct-30 00:00 2456595.500000000 *    87.08211  35.89543 -1.82259  0.663500 38.6569144175747 -23.0888995
 2013-Oct-31 00:00 2456596.500000000 *    87.06648  35.89975 -1.87590  0.654035 38.6437233514912 -22.7690329
 2013-Nov-01 00:00 2456597.500000000 *    87.05041  35.90400 -1.92855  0.644317 38.6307224030178 -22.4413265
 2013-Nov-02 00:00 2456598.500000000 *    87.03391  35.90817 -1.98049  0.634346 38.6179160738815 -22.1058217
